*******************************************************************************
Ephemeris / WWW_USER Tue Feb 19 21:46:06 2019 Pasadena, USA      / Horizons    
*******************************************************************************
Target body name: New Horizons (spacecraft) (-98) {source: NH_merged}
Center body name: Earth (399)                     {source: NH_merged}
Center-site name: Green Bank (GBT)
*******************************************************************************
Start time      : A.D. 2019-Feb-20 19:15:00.0000 UT      
Stop  time      : A.D. 2019-Feb-21 07:15:00.0000 UT      
Step-size       : 1 minutes
*******************************************************************************
Target pole/equ : No model available
Target radii    : (unavailable)                                                
Center geodetic : 280.160200,38.4330940,0.8760930 {E-lon(deg),Lat(deg),Alt(km)}
Center cylindric: 280.160200,5003.37558,3943.7589 {E-lon(deg),Dxy(km),Dz(km)}
Center pole/equ : High-precision EOP model        {East-longitude positive}
Center radii    : 6378.1 x 6378.1 x 6356.8 km     {Equator, meridian, pole}    
Target primary  : Pluto
Vis. interferer : MOON (R_eq= 1737.400) km        {source: NH_merged}
Rel. light bend : Sun, EARTH                      {source: NH_merged}
Rel. lght bnd GM: 1.3271E+11, 3.9860E+05 km^3/s^2                              
Atmos refraction: NO (AIRLESS)
RA format       : HMS
Time format     : CAL 
RTS-only print  : NO       
EOP file        : eop.190218.p190512                                           
EOP coverage    : DATA-BASED 1962-JAN-20 TO 2019-FEB-18. PREDICTS-> 2019-MAY-11
Units conversion: 1 au= 149597870.700 km, c= 299792.458 km/s, 1 day= 86400.0 s 
Table cut-offs 1: Elevation (-90.0deg=NO ),Airmass (>38.000=NO), Daylight (NO )
Table cut-offs 2: Solar elongation (  0.0,180.0=NO ),Local Hour Angle( 0.0=NO )
Table cut-offs 3: RA/DEC angular rate (     0.0=NO )                           
*******************************************************************************************************************
 Date__(UT)__HR:MN     R.A._(ICRF/J2000.0)_DEC dRA*cosD d(DEC)/dt            delta      deldot    S-O-T /r    S-T-O
*******************************************************************************************************************
$$SOE
 2019-Feb-20 20:21 *   19 13 17.29 -20 25 53.7 2.555886  0.424527 44.3847406472229  -6.4696539  44.5313 /L   0.9057
 2019-Feb-20 20:22 *   19 13 17.30 -20 25 53.7 2.556036  0.424527 44.3847380524891  -6.4698399  44.5320 /L   0.9057
 2019-Feb-20 20:23 *   19 13 17.30 -20 25 53.7 2.556187  0.424527 44.3847354576794  -6.4700325  44.5327 /L   0.9057
 2019-Feb-20 20:24 *   19 13 17.30 -20 25 53.7 2.556337  0.424527 44.3847328627911  -6.4702317  44.5333 /L   0.9057
 2019-Feb-20 20:25 *   19 13 17.31 -20 25 53.7 2.556488  0.424527 44.3847302678216  -6.4704373  44.5340 /L   0.9057
 2019-Feb-20 20:26 *   19 13 17.31 -20 25 53.6 2.556638  0.424526 44.3847276727684  -6.4706495  44.5347 /L   0.9057
 2019-Feb-20 20:27 *   19 13 17.31 -20 25 53.6 2.556789  0.424525 44.3847250776287  -6.4708683  44.5354 /L   0.9057
 2019-Feb-20 20:28 *   19 13 17.31 -20 25 53.6 2.556939  0.424524 44.3847224824000  -6.4710936  44.5361 /L   0.9057
 2019-Feb-20 20:29 *   19 13 17.32 -20 25 53.6 2.557090  0.424522 44.3847198870796  -6.4713254  44.5367 /L   0.9058
 2019-Feb-20 20:30 *   19 13 17.32 -20 25 53.6 2.557240  0.424521 44.3847172916649  -6.4715638  44.5374 /L   0.9058
 2019-Feb-20 20:31 *   19 13 17.32 -20 25 53.6 2.557391  0.424519 44.3847146961533  -6.4718087  44.5381 /L   0.9058
 2019-Feb-20 20:32 *   19 13 17.33 -20 25 53.6 2.557541  0.424516 44.3847121005422  -6.4720602  44.5388 /L   0.9058
 2019-Feb-20 20:33 *   19 13 17.33 -20 25 53.6 2.557692  0.424514 44.3847095048289  -6.4723182  44.5395 /L   0.9058
 2019-Feb-20 20:34 *   19 13 17.33 -20 25 53.6 2.557843  0.424511 44.3847069090108  -6.4725828  44.5402 /L   0.9058
 2019-Feb-20 20:35 *   19 13 17.34 -20 25 53.6 2.557993  0.424508 44.3847043130853  -6.4728539  44.5408 /L   0.9058
 2019-Feb-20 20:36 *   19 13 17.34 -20 25 53.6 2.558144  0.424504 44.3847017170498  -6.4731315  44.5415 /L   0.9058
 2019-Feb-20 20:37 *   19 13 17.34 -20 25 53.6 2.558294  0.424501 44.3846991209016  -6.4734157  44.5422 /L   0.9058
 2019-Feb-20 20:38 *   19 13 17.34 -20 25 53.6 2.558445  0.424497 44.3846965246381  -6.4737064  44.5429 /L   0.9059
 2019-Feb-20 20:39 *   19 13 17.35 -20 25 53.6 2.558595  0.424492 44.3846939282567  -6.4740037  44.5436 /L   0.9059
 2019-Feb-20 20:40 *   19 13 17.35 -20 25 53.6 2.558746  0.424488 44.3846913317548  -6.4743074  44.5442 /L   0.9059
 2019-Feb-20 20:41 *   19 13 17.35 -20 25 53.5 2.558896  0.424483 44.3846887351297  -6.4746178  44.5449 /L   0.9059
 2019-Feb-20 20:42 *   19 13 17.36 -20 25 53.5 2.559047  0.424478 44.3846861383789  -6.4749347  44.5456 /L   0.9059
 2019-Feb-20 20:43 *   19 13 17.36 -20 25 53.5 2.559197  0.424473 44.3846835414997  -6.4752581  44.5463 /L   0.9059
 2019-Feb-20 20:44 *   19 13 17.36 -20 25 53.5 2.559347  0.424467 44.3846809444894  -6.4755880  44.5470 /L   0.9059
 2019-Feb-20 20:45 *   19 13 17.37 -20 25 53.5 2.559498  0.424461 44.3846783473455  -6.4759245  44.5477 /L   0.9059
 2019-Feb-20 20:46 *   19 13 17.37 -20 25 53.5 2.559648  0.424455 44.3846757500654  -6.4762675  44.5483 /L   0.9059
 2019-Feb-20 20:47 *   19 13 17.37 -20 25 53.5 2.559798  0.424449 44.3846731526464  -6.4766170  44.5490 /L   0.9060
 2019-Feb-20 20:48 *   19 13 17.38 -20 25 53.5 2.559948  0.424442 44.3846705550859  -6.4769731  44.5497 /L   0.9060
 2019-Feb-20 20:49 *   19 13 17.38 -20 25 53.5 2.560098  0.424435 44.3846679573813  -6.4773357  44.5504 /L   0.9060
 2019-Feb-20 20:50 *   19 13 17.38 -20 25 53.5 2.560249  0.424428 44.3846653595299  -6.4777048  44.5511 /L   0.9060
 2019-Feb-20 20:51 *   19 13 17.38 -20 25 53.5 2.560399  0.424421 44.3846627615292  -6.4780805  44.5517 /L   0.9060
 2019-Feb-20 20:52 *   19 13 17.39 -20 25 53.5 2.560548  0.424413 44.3846601633765  -6.4784626  44.5524 /L   0.9060
 2019-Feb-20 20:53 *   19 13 17.39 -20 25 53.5 2.560698  0.424405 44.3846575650693  -6.4788513  44.5531 /L   0.9060
 2019-Feb-20 20:54 *   19 13 17.39 -20 25 53.5 2.560848  0.424396 44.3846549666049  -6.4792465  44.5538 /L   0.9060
 2019-Feb-20 20:55 *   19 13 17.40 -20 25 53.4 2.560998  0.424388 44.3846523679806  -6.4796482  44.5545 /L   0.9060
 2019-Feb-20 20:56 *   19 13 17.40 -20 25 53.4 2.561147  0.424379 44.3846497691940  -6.4800564  44.5552 /L   0.9060
 2019-Feb-20 20:57 *   19 13 17.40 -20 25 53.4 2.561297  0.424370 44.3846471702423  -6.4804712  44.5558 /L   0.9061
 2019-Feb-20 20:58 *   19 13 17.41 -20 25 53.4 2.561446  0.424361 44.3846445711230  -6.4808924  44.5565 /L   0.9061
 2019-Feb-20 20:59 *   19 13 17.41 -20 25 53.4 2.561596  0.424351 44.3846419718335  -6.4813201  44.5572 /L   0.9061
 2019-Feb-20 21:00 *   19 13 17.41 -20 25 53.4 2.561745  0.424341 44.3846393723711  -6.4817543  44.5579 /L   0.9061
 2019-Feb-20 21:01 *   19 13 17.41 -20 25 53.4 2.561894  0.424331 44.3846367727333  -6.4821950  44.5586 /L   0.9061
 2019-Feb-20 21:02 *   19 13 17.42 -20 25 53.4 2.562043  0.424320 44.3846341729174  -6.4826422  44.5593 /L   0.9061
 2019-Feb-20 21:03 *   19 13 17.42 -20 25 53.4 2.562192  0.424310 44.3846315729209  -6.4830959  44.5599 /L   0.9061
 2019-Feb-20 21:04 *   19 13 17.42 -20 25 53.4 2.562341  0.424299 44.3846289727411  -6.4835561  44.5606 /L   0.9061
 2019-Feb-20 21:05 *   19 13 17.43 -20 25 53.4 2.562490  0.424287 44.3846263723755  -6.4840228  44.5613 /L   0.9061
 2019-Feb-20 21:06 *   19 13 17.43 -20 25 53.4 2.562638  0.424276 44.3846237718214  -6.4844959  44.5620 /L   0.9062
 2019-Feb-20 21:07 *   19 13 17.43 -20 25 53.4 2.562787  0.424264 44.3846211710762  -6.4849755  44.5627 /L   0.9062
 2019-Feb-20 21:08 *   19 13 17.44 -20 25 53.4 2.562935  0.424252 44.3846185701375  -6.4854615  44.5633 /L   0.9062
 2019-Feb-20 21:09 *   19 13 17.44 -20 25 53.3 2.563084  0.424239 44.3846159690024  -6.4859540  44.5640 /L   0.9062
 2019-Feb-20 21:10 *   19 13 17.44 -20 25 53.3 2.563232  0.424227 44.3846133676686  -6.4864530  44.5647 /L   0.9062
 2019-Feb-20 21:11 *   19 13 17.44 -20 25 53.3 2.563380  0.424214 44.3846107661334  -6.4869585  44.5654 /L   0.9062
 2019-Feb-20 21:12 *   19 13 17.45 -20 25 53.3 2.563528  0.424201 44.3846081643941  -6.4874703  44.5661 /L   0.9062
 2019-Feb-20 21:13 *   19 13 17.45 -20 25 53.3 2.563675  0.424187 44.3846055624483  -6.4879886  44.5668 /L   0.9062
 2019-Feb-20 21:14 *   19 13 17.45 -20 25 53.3 2.563823  0.424174 44.3846029602933  -6.4885134  44.5674 /L   0.9062
 2019-Feb-20 21:15 *   19 13 17.46 -20 25 53.3 2.563971  0.424160 44.3846003579265  -6.4890446  44.5681 /L   0.9063
 2019-Feb-20 21:16 *   19 13 17.46 -20 25 53.3 2.564118  0.424145 44.3845977553455  -6.4895822  44.5688 /L   0.9063
 2019-Feb-20 21:17 *   19 13 17.46 -20 25 53.3 2.564265  0.424131 44.3845951525475  -6.4901262  44.5695 /L   0.9063
 2019-Feb-20 21:18 *   19 13 17.47 -20 25 53.3 2.564412  0.424116 44.3845925495301  -6.4906767  44.5702 /L   0.9063
 2019-Feb-20 21:19 *   19 13 17.47 -20 25 53.3 2.564559  0.424101 44.3845899462906  -6.4912335  44.5709 /L   0.9063
 2019-Feb-20 21:20 *   19 13 17.47 -20 25 53.3 2.564706  0.424086 44.3845873428265  -6.4917968  44.5715 /L   0.9063
 2019-Feb-20 21:21 *   19 13 17.48 -20 25 53.3 2.564852  0.424070 44.3845847391352  -6.4923665  44.5722 /L   0.9063
 2019-Feb-20 21:22 *   19 13 17.48 -20 25 53.3 2.564999  0.424055 44.3845821352142  -6.4929425  44.5729 /L   0.9063
 2019-Feb-20 21:23 *   19 13 17.48 -20 25 53.3 2.565145  0.424038 44.3845795310608  -6.4935249  44.5736 /L   0.9063
 2019-Feb-20 21:24 *   19 13 17.48 -20 25 53.2 2.565291  0.424022 44.3845769266726  -6.4941138  44.5743 /L   0.9064
 2019-Feb-20 21:25 *   19 13 17.49 -20 25 53.2 2.565437  0.424005 44.3845743220470  -6.4947090  44.5750 /L   0.9064
 2019-Feb-20 21:26 *   19 13 17.49 -20 25 53.2 2.565582  0.423989 44.3845717171813  -6.4953105  44.5756 /L   0.9064
